<?xml version="1.0"?>
<gpx version="1.1" creator="Generated by Swisstopo App. See https://www.swisstopo.ch/app for more information." xmlns="http://www.topografix.com/GPX/1/1" xmlns:xsi="http://www.w3.org/2001/XMLSchema-instance" xmlns:swisstopo="https://prod-static.swisstopo-app.ch/xmlschemas/SwisstopoExtensions" xsi:schemaLocation="http://www.topografix.com/GPX/1/1 http://www.topografix.com/GPX/1/1/gpx.xsd https://swisstopo-app.ch/xmlschemas/SwisstopoExtensions https://prod-static.swisstopo-app.ch/xmlschemas/SwisstopoExtensions.xsd">
	<metadata>
		<name>AguilleHelbronner</name>
		<desc></desc>
		<time>2026-07-25T17:12:45+02:00</time>
		<extensions>
			<swisstopo:tour_type>0</swisstopo:tour_type>
		</extensions>
	</metadata>
	<wpt lat="45.8791772955" lon="6.8875308584">
		<ele>3658.1</ele>
		<extensions>
			<swisstopo:waypoint_id>0</swisstopo:waypoint_id>
			<swisstopo:waypoint_is_controlpoint>1</swisstopo:waypoint_is_controlpoint>
			<swisstopo:waypoint_routepoint_id>292976936</swisstopo:waypoint_routepoint_id>
			<swisstopo:waypoint_meters_into_tour>0.000000</swisstopo:waypoint_meters_into_tour>
		</extensions>
		<name></name>
	</wpt>
	<wpt lat="45.8462443722" lon="6.9324395071">
		<ele>3376.2</ele>
		<extensions>
			<swisstopo:waypoint_id>956967803</swisstopo:waypoint_id>
			<swisstopo:waypoint_is_controlpoint>1</swisstopo:waypoint_is_controlpoint>
			<swisstopo:waypoint_routepoint_id>650002704</swisstopo:waypoint_routepoint_id>
			<swisstopo:waypoint_meters_into_tour>5434.457535</swisstopo:waypoint_meters_into_tour>
			<swisstopo:waypoint_stage_before distance="5434.457535" duration="8140.780883" ascent="362.550456" descent="644.492839" />
		</extensions>
		<name>Destination</name>
	</wpt>
	<trk>
		<name>AguilleHelbronner</name>
		<trkseg>
			<trkpt lat="45.8791772955" lon="6.8875308584">
				<ele>3658.1</ele>
				<time>1970-01-01T01:00:00+01:00</time>
				<extensions>
					<swisstopo:routepoint_id>292976936</swisstopo:routepoint_id>
				</extensions>
			</trkpt>
			<trkpt lat="45.8791772955" lon="6.8875308584">
				<ele>3658.1</ele>
				<extensions>
					<swisstopo:waypoint_id>0</swisstopo:waypoint_id>
					<swisstopo:waypoint_is_controlpoint>1</swisstopo:waypoint_is_controlpoint>
					<swisstopo:waypoint_routepoint_id>292976936</swisstopo:waypoint_routepoint_id>
					<swisstopo:waypoint_meters_into_tour>0.000000</swisstopo:waypoint_meters_into_tour>
					<swisstopo:waypoint_trackpoint_id>swisstopo-12</swisstopo:waypoint_trackpoint_id>
				</extensions>
				<name>swisstopo-12</name>
			</trkpt>
			<trkpt lat="45.8792607754" lon="6.8880452011">
				<ele>3658.3</ele>
				<time>1970-01-01T01:00:00+01:00</time>
				<extensions>
					<swisstopo:routepoint_id>566245930</swisstopo:routepoint_id>
				</extensions>
			</trkpt>
			<trkpt lat="45.8792607754" lon="6.8880452011">
				<ele>3658.3</ele>
				<extensions>
					<swisstopo:waypoint_id>143157435</swisstopo:waypoint_id>
					<swisstopo:waypoint_is_controlpoint>1</swisstopo:waypoint_is_controlpoint>
					<swisstopo:waypoint_routepoint_id>566245930</swisstopo:waypoint_routepoint_id>
					<swisstopo:waypoint_meters_into_tour>41.000000</swisstopo:waypoint_meters_into_tour>
					<swisstopo:waypoint_trackpoint_id>swisstopo-02</swisstopo:waypoint_trackpoint_id>
					<swisstopo:waypoint_original_name>Waypoint</swisstopo:waypoint_original_name>
				</extensions>
				<name>swisstopo-02</name>
			</trkpt>
			<trkpt lat="45.8785631369" lon="6.8907053548">
				<ele>3592.1</ele>
				<time>1970-01-01T01:00:00+01:00</time>
				<extensions>
					<swisstopo:routepoint_id>1175726119</swisstopo:routepoint_id>
				</extensions>
			</trkpt>
			<trkpt lat="45.8785631369" lon="6.8907053548">
				<ele>3592.1</ele>
				<extensions>
					<swisstopo:waypoint_id>632195444</swisstopo:waypoint_id>
					<swisstopo:waypoint_is_controlpoint>1</swisstopo:waypoint_is_controlpoint>
					<swisstopo:waypoint_routepoint_id>1175726119</swisstopo:waypoint_routepoint_id>
					<swisstopo:waypoint_meters_into_tour>261.628647</swisstopo:waypoint_meters_into_tour>
					<swisstopo:waypoint_trackpoint_id>swisstopo-03</swisstopo:waypoint_trackpoint_id>
					<swisstopo:waypoint_original_name>Waypoint</swisstopo:waypoint_original_name>
				</extensions>
				<name>swisstopo-03</name>
			</trkpt>
			<trkpt lat="45.8746281792" lon="6.8898946847">
				<ele>3500.2</ele>
				<time>1970-01-01T01:00:00+01:00</time>
				<extensions>
					<swisstopo:routepoint_id>657933944</swisstopo:routepoint_id>
				</extensions>
			</trkpt>
			<trkpt lat="45.8746281792" lon="6.8898946847">
				<ele>3500.2</ele>
				<extensions>
					<swisstopo:waypoint_id>765160157</swisstopo:waypoint_id>
					<swisstopo:waypoint_is_controlpoint>1</swisstopo:waypoint_is_controlpoint>
					<swisstopo:waypoint_routepoint_id>657933944</swisstopo:waypoint_routepoint_id>
					<swisstopo:waypoint_meters_into_tour>703.584518</swisstopo:waypoint_meters_into_tour>
					<swisstopo:waypoint_trackpoint_id>swisstopo-04</swisstopo:waypoint_trackpoint_id>
					<swisstopo:waypoint_original_name>Waypoint</swisstopo:waypoint_original_name>
				</extensions>
				<name>swisstopo-04</name>
			</trkpt>
			<trkpt lat="45.8703145900" lon="6.8929605359">
				<ele>3461.3</ele>
				<time>1970-01-01T01:00:00+01:00</time>
				<extensions>
					<swisstopo:routepoint_id>1228733668</swisstopo:routepoint_id>
				</extensions>
			</trkpt>
			<trkpt lat="45.8703145900" lon="6.8929605359">
				<ele>3461.3</ele>
				<extensions>
					<swisstopo:waypoint_id>1401105713</swisstopo:waypoint_id>
					<swisstopo:waypoint_is_controlpoint>1</swisstopo:waypoint_is_controlpoint>
					<swisstopo:waypoint_routepoint_id>1228733668</swisstopo:waypoint_routepoint_id>
					<swisstopo:waypoint_meters_into_tour>1238.974594</swisstopo:waypoint_meters_into_tour>
					<swisstopo:waypoint_trackpoint_id>swisstopo-05</swisstopo:waypoint_trackpoint_id>
					<swisstopo:waypoint_original_name>Waypoint</swisstopo:waypoint_original_name>
				</extensions>
				<name>swisstopo-05</name>
			</trkpt>
			<trkpt lat="45.8680045066" lon="6.8985498232">
				<ele>3402.2</ele>
				<time>1970-01-01T01:00:00+01:00</time>
				<extensions>
					<swisstopo:routepoint_id>1123138319</swisstopo:routepoint_id>
				</extensions>
			</trkpt>
			<trkpt lat="45.8680045066" lon="6.8985498232">
				<ele>3402.2</ele>
				<extensions>
					<swisstopo:waypoint_id>1314686138</swisstopo:waypoint_id>
					<swisstopo:waypoint_is_controlpoint>1</swisstopo:waypoint_is_controlpoint>
					<swisstopo:waypoint_routepoint_id>1123138319</swisstopo:waypoint_routepoint_id>
					<swisstopo:waypoint_meters_into_tour>1743.314896</swisstopo:waypoint_meters_into_tour>
					<swisstopo:waypoint_trackpoint_id>swisstopo-06</swisstopo:waypoint_trackpoint_id>
					<swisstopo:waypoint_original_name>Waypoint</swisstopo:waypoint_original_name>
				</extensions>
				<name>swisstopo-06</name>
			</trkpt>
			<trkpt lat="45.8647766167" lon="6.9018218781">
				<ele>3265.7</ele>
				<time>1970-01-01T01:00:00+01:00</time>
				<extensions>
					<swisstopo:routepoint_id>181312625</swisstopo:routepoint_id>
				</extensions>
			</trkpt>
			<trkpt lat="45.8647766167" lon="6.9018218781">
				<ele>3265.7</ele>
				<extensions>
					<swisstopo:waypoint_id>736021068</swisstopo:waypoint_id>
					<swisstopo:waypoint_is_controlpoint>1</swisstopo:waypoint_is_controlpoint>
					<swisstopo:waypoint_routepoint_id>181312625</swisstopo:waypoint_routepoint_id>
					<swisstopo:waypoint_meters_into_tour>2183.026474</swisstopo:waypoint_meters_into_tour>
					<swisstopo:waypoint_trackpoint_id>swisstopo-07</swisstopo:waypoint_trackpoint_id>
					<swisstopo:waypoint_original_name>Waypoint</swisstopo:waypoint_original_name>
				</extensions>
				<name>swisstopo-07</name>
			</trkpt>
			<trkpt lat="45.8584913230" lon="6.9093610426">
				<ele>3106.0</ele>
				<time>1970-01-01T01:00:00+01:00</time>
				<extensions>
					<swisstopo:routepoint_id>460027476</swisstopo:routepoint_id>
				</extensions>
			</trkpt>
			<trkpt lat="45.8584913230" lon="6.9093610426">
				<ele>3106.0</ele>
				<extensions>
					<swisstopo:waypoint_id>1940635331</swisstopo:waypoint_id>
					<swisstopo:waypoint_is_controlpoint>1</swisstopo:waypoint_is_controlpoint>
					<swisstopo:waypoint_routepoint_id>460027476</swisstopo:waypoint_routepoint_id>
					<swisstopo:waypoint_meters_into_tour>3094.685959</swisstopo:waypoint_meters_into_tour>
					<swisstopo:waypoint_trackpoint_id>swisstopo-08</swisstopo:waypoint_trackpoint_id>
					<swisstopo:waypoint_original_name>Waypoint</swisstopo:waypoint_original_name>
				</extensions>
				<name>swisstopo-08</name>
			</trkpt>
			<trkpt lat="45.8570609047" lon="6.9150202676">
				<ele>3092.8</ele>
				<time>1970-01-01T01:00:00+01:00</time>
				<extensions>
					<swisstopo:routepoint_id>387220862</swisstopo:routepoint_id>
				</extensions>
			</trkpt>
			<trkpt lat="45.8570609047" lon="6.9150202676">
				<ele>3092.8</ele>
				<extensions>
					<swisstopo:waypoint_id>1409064806</swisstopo:waypoint_id>
					<swisstopo:waypoint_is_controlpoint>1</swisstopo:waypoint_is_controlpoint>
					<swisstopo:waypoint_routepoint_id>387220862</swisstopo:waypoint_routepoint_id>
					<swisstopo:waypoint_meters_into_tour>3562.145157</swisstopo:waypoint_meters_into_tour>
					<swisstopo:waypoint_trackpoint_id>swisstopo-09</swisstopo:waypoint_trackpoint_id>
					<swisstopo:waypoint_original_name>Waypoint</swisstopo:waypoint_original_name>
				</extensions>
				<name>swisstopo-09</name>
			</trkpt>
			<trkpt lat="45.8522893466" lon="6.9194946833">
				<ele>3218.2</ele>
				<time>1970-01-01T01:00:00+01:00</time>
				<extensions>
					<swisstopo:routepoint_id>27419535</swisstopo:routepoint_id>
				</extensions>
			</trkpt>
			<trkpt lat="45.8522893466" lon="6.9194946833">
				<ele>3218.2</ele>
				<extensions>
					<swisstopo:waypoint_id>1611520224</swisstopo:waypoint_id>
					<swisstopo:waypoint_is_controlpoint>1</swisstopo:waypoint_is_controlpoint>
					<swisstopo:waypoint_routepoint_id>27419535</swisstopo:waypoint_routepoint_id>
					<swisstopo:waypoint_meters_into_tour>4196.330215</swisstopo:waypoint_meters_into_tour>
					<swisstopo:waypoint_trackpoint_id>swisstopo-10</swisstopo:waypoint_trackpoint_id>
					<swisstopo:waypoint_original_name>Waypoint</swisstopo:waypoint_original_name>
				</extensions>
				<name>swisstopo-10</name>
			</trkpt>
			<trkpt lat="45.8499782568" lon="6.9274975747">
				<ele>3399.1</ele>
				<time>1970-01-01T01:00:00+01:00</time>
				<extensions>
					<swisstopo:routepoint_id>1571316159</swisstopo:routepoint_id>
				</extensions>
			</trkpt>
			<trkpt lat="45.8499782568" lon="6.9274975747">
				<ele>3399.1</ele>
				<extensions>
					<swisstopo:waypoint_id>976070129</swisstopo:waypoint_id>
					<swisstopo:waypoint_is_controlpoint>1</swisstopo:waypoint_is_controlpoint>
					<swisstopo:waypoint_routepoint_id>1571316159</swisstopo:waypoint_routepoint_id>
					<swisstopo:waypoint_meters_into_tour>4869.027054</swisstopo:waypoint_meters_into_tour>
					<swisstopo:waypoint_trackpoint_id>swisstopo-11</swisstopo:waypoint_trackpoint_id>
					<swisstopo:waypoint_original_name>Waypoint</swisstopo:waypoint_original_name>
				</extensions>
				<name>swisstopo-11</name>
			</trkpt>
			<trkpt lat="45.8462443722" lon="6.9324395071">
				<ele>3376.2</ele>
				<time>1970-01-01T01:00:00+01:00</time>
				<extensions>
					<swisstopo:routepoint_id>650002704</swisstopo:routepoint_id>
				</extensions>
			</trkpt>
			<trkpt lat="45.8462443722" lon="6.9324395071">
				<ele>3376.2</ele>
				<extensions>
					<swisstopo:waypoint_id>956967803</swisstopo:waypoint_id>
					<swisstopo:waypoint_is_controlpoint>1</swisstopo:waypoint_is_controlpoint>
					<swisstopo:waypoint_routepoint_id>650002704</swisstopo:waypoint_routepoint_id>
					<swisstopo:waypoint_meters_into_tour>5434.457535</swisstopo:waypoint_meters_into_tour>
					<swisstopo:waypoint_stage_before distance="5434.457535" duration="8140.780883" ascent="362.550456" descent="644.492839" />
					<swisstopo:waypoint_trackpoint_id>swisstopo-13</swisstopo:waypoint_trackpoint_id>
					<swisstopo:waypoint_original_name>Destination</swisstopo:waypoint_original_name>
				</extensions>
				<name>swisstopo-13</name>
			</trkpt>
		</trkseg>
	</trk>
</gpx>
