<?xml version="1.0"?>
<gpx version="1.1" creator="Generated by Swisstopo App. See https://www.swisstopo.ch/app for more information." xmlns="http://www.topografix.com/GPX/1/1" xmlns:xsi="http://www.w3.org/2001/XMLSchema-instance" xmlns:swisstopo="https://prod-static.swisstopo-app.ch/xmlschemas/SwisstopoExtensions" xsi:schemaLocation="http://www.topografix.com/GPX/1/1 http://www.topografix.com/GPX/1/1/gpx.xsd https://swisstopo-app.ch/xmlschemas/SwisstopoExtensions https://prod-static.swisstopo-app.ch/xmlschemas/SwisstopoExtensions.xsd">
	<metadata>
		<name>SaleinaTrient</name>
		<desc />
		<time>2026-07-25T17:08:57+02:00</time>
		<extensions>
			<swisstopo:tour_type>0</swisstopo:tour_type>
		</extensions>
	</metadata>
	<wpt lat="45.9763754903" lon="7.0701803679">
		<ele>2669.0</ele>
		<extensions>
			<swisstopo:waypoint_id>0</swisstopo:waypoint_id>
			<swisstopo:waypoint_is_controlpoint>1</swisstopo:waypoint_is_controlpoint>
			<swisstopo:waypoint_routepoint_id>25782636</swisstopo:waypoint_routepoint_id>
			<swisstopo:waypoint_meters_into_tour>0.000000</swisstopo:waypoint_meters_into_tour>
		</extensions>
		<name />
	</wpt>
	<wpt lat="45.9993347213" lon="7.0437996585">
		<ele>3141.1</ele>
		<extensions>
			<swisstopo:waypoint_id>1161604894</swisstopo:waypoint_id>
			<swisstopo:waypoint_is_controlpoint>1</swisstopo:waypoint_is_controlpoint>
			<swisstopo:waypoint_routepoint_id>1459609064</swisstopo:waypoint_routepoint_id>
			<swisstopo:waypoint_meters_into_tour>5543.003159</swisstopo:waypoint_meters_into_tour>
			<swisstopo:waypoint_stage_before distance="5543.003159" duration="10421.000197" ascent="782.874797" descent="310.795695" />
		</extensions>
		<name>Destination</name>
	</wpt>
	<trk>
		<name>SaleinaTrient</name>
		<trkseg>
			<trkpt lat="45.9763754903" lon="7.0701803679">
				<ele>2669.0</ele>
				<time>1970-01-01T01:00:00+01:00</time>
				<extensions>
					<swisstopo:routepoint_id>25782636</swisstopo:routepoint_id>
				</extensions>
			</trkpt>
			<trkpt lat="45.9763754903" lon="7.0701803679">
				<ele>2669.0</ele>
				<extensions>
					<swisstopo:waypoint_id>0</swisstopo:waypoint_id>
					<swisstopo:waypoint_is_controlpoint>1</swisstopo:waypoint_is_controlpoint>
					<swisstopo:waypoint_routepoint_id>25782636</swisstopo:waypoint_routepoint_id>
					<swisstopo:waypoint_meters_into_tour>0.000000</swisstopo:waypoint_meters_into_tour>
					<swisstopo:waypoint_trackpoint_id>swisstopo-19</swisstopo:waypoint_trackpoint_id>
				</extensions>
				<name>swisstopo-19</name>
			</trkpt>
			<trkpt lat="45.9732311700" lon="7.0612970843">
				<ele>2588.2</ele>
				<time>1970-01-01T01:00:00+01:00</time>
				<extensions>
					<swisstopo:routepoint_id>80021373</swisstopo:routepoint_id>
				</extensions>
			</trkpt>
			<trkpt lat="45.9732311700" lon="7.0612970843">
				<ele>2588.2</ele>
				<extensions>
					<swisstopo:waypoint_id>462239930</swisstopo:waypoint_id>
					<swisstopo:waypoint_is_controlpoint>1</swisstopo:waypoint_is_controlpoint>
					<swisstopo:waypoint_routepoint_id>80021373</swisstopo:waypoint_routepoint_id>
					<swisstopo:waypoint_meters_into_tour>772.181946</swisstopo:waypoint_meters_into_tour>
					<swisstopo:waypoint_trackpoint_id>swisstopo-02</swisstopo:waypoint_trackpoint_id>
					<swisstopo:waypoint_original_name>Waypoint</swisstopo:waypoint_original_name>
				</extensions>
				<name>swisstopo-02</name>
			</trkpt>
			<trkpt lat="45.9723100959" lon="7.0513118962">
				<ele>2692.8</ele>
				<time>1970-01-01T01:00:00+01:00</time>
				<extensions>
					<swisstopo:routepoint_id>1478501421</swisstopo:routepoint_id>
				</extensions>
			</trkpt>
			<trkpt lat="45.9723100959" lon="7.0513118962">
				<ele>2692.8</ele>
				<extensions>
					<swisstopo:waypoint_id>1447579225</swisstopo:waypoint_id>
					<swisstopo:waypoint_is_controlpoint>1</swisstopo:waypoint_is_controlpoint>
					<swisstopo:waypoint_routepoint_id>1478501421</swisstopo:waypoint_routepoint_id>
					<swisstopo:waypoint_meters_into_tour>1552.897339</swisstopo:waypoint_meters_into_tour>
					<swisstopo:waypoint_trackpoint_id>swisstopo-03</swisstopo:waypoint_trackpoint_id>
					<swisstopo:waypoint_original_name>Waypoint</swisstopo:waypoint_original_name>
				</extensions>
				<name>swisstopo-03</name>
			</trkpt>
			<trkpt lat="45.9739248380" lon="7.0478478118">
				<ele>2728.5</ele>
				<time>1970-01-01T01:00:00+01:00</time>
				<extensions>
					<swisstopo:routepoint_id>153999088</swisstopo:routepoint_id>
				</extensions>
			</trkpt>
			<trkpt lat="45.9739248380" lon="7.0478478118">
				<ele>2728.5</ele>
				<extensions>
					<swisstopo:waypoint_id>1774771847</swisstopo:waypoint_id>
					<swisstopo:waypoint_is_controlpoint>1</swisstopo:waypoint_is_controlpoint>
					<swisstopo:waypoint_routepoint_id>153999088</swisstopo:waypoint_routepoint_id>
					<swisstopo:waypoint_meters_into_tour>1875.882080</swisstopo:waypoint_meters_into_tour>
					<swisstopo:waypoint_trackpoint_id>swisstopo-04</swisstopo:waypoint_trackpoint_id>
					<swisstopo:waypoint_original_name>Waypoint</swisstopo:waypoint_original_name>
				</extensions>
				<name>swisstopo-04</name>
			</trkpt>
			<trkpt lat="45.9774613082" lon="7.0441972171">
				<ele>2850.5</ele>
				<time>1970-01-01T01:00:00+01:00</time>
				<extensions>
					<swisstopo:routepoint_id>1351114875</swisstopo:routepoint_id>
				</extensions>
			</trkpt>
			<trkpt lat="45.9774613082" lon="7.0441972171">
				<ele>2850.5</ele>
				<extensions>
					<swisstopo:waypoint_id>1664386307</swisstopo:waypoint_id>
					<swisstopo:waypoint_is_controlpoint>1</swisstopo:waypoint_is_controlpoint>
					<swisstopo:waypoint_routepoint_id>1351114875</swisstopo:waypoint_routepoint_id>
					<swisstopo:waypoint_meters_into_tour>2360.261383</swisstopo:waypoint_meters_into_tour>
					<swisstopo:waypoint_trackpoint_id>swisstopo-05</swisstopo:waypoint_trackpoint_id>
					<swisstopo:waypoint_original_name>Waypoint</swisstopo:waypoint_original_name>
				</extensions>
				<name>swisstopo-05</name>
			</trkpt>
			<trkpt lat="45.9799080428" lon="7.0492353152">
				<ele>2954.5</ele>
				<time>1970-01-01T01:00:00+01:00</time>
				<extensions>
					<swisstopo:routepoint_id>278164198</swisstopo:routepoint_id>
				</extensions>
			</trkpt>
			<trkpt lat="45.9799080428" lon="7.0492353152">
				<ele>2954.5</ele>
				<extensions>
					<swisstopo:waypoint_id>1596592313</swisstopo:waypoint_id>
					<swisstopo:waypoint_is_controlpoint>1</swisstopo:waypoint_is_controlpoint>
					<swisstopo:waypoint_routepoint_id>278164198</swisstopo:waypoint_routepoint_id>
					<swisstopo:waypoint_meters_into_tour>2836.130035</swisstopo:waypoint_meters_into_tour>
					<swisstopo:waypoint_trackpoint_id>swisstopo-06</swisstopo:waypoint_trackpoint_id>
					<swisstopo:waypoint_original_name>Waypoint</swisstopo:waypoint_original_name>
				</extensions>
				<name>swisstopo-06</name>
			</trkpt>
			<trkpt lat="45.9827804965" lon="7.0469984226">
				<ele>3015.0</ele>
				<time>1970-01-01T01:00:00+01:00</time>
				<extensions>
					<swisstopo:routepoint_id>632957484</swisstopo:routepoint_id>
				</extensions>
			</trkpt>
			<trkpt lat="45.9827804965" lon="7.0469984226">
				<ele>3015.0</ele>
				<extensions>
					<swisstopo:waypoint_id>131603448</swisstopo:waypoint_id>
					<swisstopo:waypoint_is_controlpoint>1</swisstopo:waypoint_is_controlpoint>
					<swisstopo:waypoint_routepoint_id>632957484</swisstopo:waypoint_routepoint_id>
					<swisstopo:waypoint_meters_into_tour>3199.479340</swisstopo:waypoint_meters_into_tour>
					<swisstopo:waypoint_trackpoint_id>swisstopo-07</swisstopo:waypoint_trackpoint_id>
					<swisstopo:waypoint_original_name>Waypoint</swisstopo:waypoint_original_name>
				</extensions>
				<name>swisstopo-07</name>
			</trkpt>
			<trkpt lat="45.9836336080" lon="7.0465793921">
				<ele>3057.4</ele>
				<time>1970-01-01T01:00:00+01:00</time>
				<extensions>
					<swisstopo:routepoint_id>969463502</swisstopo:routepoint_id>
				</extensions>
			</trkpt>
			<trkpt lat="45.9836336080" lon="7.0465793921">
				<ele>3057.4</ele>
				<extensions>
					<swisstopo:waypoint_id>1414482850</swisstopo:waypoint_id>
					<swisstopo:waypoint_is_controlpoint>1</swisstopo:waypoint_is_controlpoint>
					<swisstopo:waypoint_routepoint_id>969463502</swisstopo:waypoint_routepoint_id>
					<swisstopo:waypoint_meters_into_tour>3299.724037</swisstopo:waypoint_meters_into_tour>
					<swisstopo:waypoint_trackpoint_id>swisstopo-08</swisstopo:waypoint_trackpoint_id>
					<swisstopo:waypoint_original_name>Waypoint</swisstopo:waypoint_original_name>
				</extensions>
				<name>swisstopo-08</name>
			</trkpt>
			<trkpt lat="45.9846757082" lon="7.0461848018">
				<ele>3086.2</ele>
				<time>1970-01-01T01:00:00+01:00</time>
				<extensions>
					<swisstopo:routepoint_id>1139794555</swisstopo:routepoint_id>
				</extensions>
			</trkpt>
			<trkpt lat="45.9846757082" lon="7.0461848018">
				<ele>3086.2</ele>
				<extensions>
					<swisstopo:waypoint_id>377674809</swisstopo:waypoint_id>
					<swisstopo:waypoint_is_controlpoint>1</swisstopo:waypoint_is_controlpoint>
					<swisstopo:waypoint_routepoint_id>1139794555</swisstopo:waypoint_routepoint_id>
					<swisstopo:waypoint_meters_into_tour>3419.540565</swisstopo:waypoint_meters_into_tour>
					<swisstopo:waypoint_trackpoint_id>swisstopo-09</swisstopo:waypoint_trackpoint_id>
					<swisstopo:waypoint_original_name>Waypoint</swisstopo:waypoint_original_name>
				</extensions>
				<name>swisstopo-09</name>
			</trkpt>
			<trkpt lat="45.9861436418" lon="7.0466646491">
				<ele>3105.8</ele>
				<time>1970-01-01T01:00:00+01:00</time>
				<extensions>
					<swisstopo:routepoint_id>226000355</swisstopo:routepoint_id>
				</extensions>
			</trkpt>
			<trkpt lat="45.9861436418" lon="7.0466646491">
				<ele>3105.8</ele>
				<extensions>
					<swisstopo:waypoint_id>104272280</swisstopo:waypoint_id>
					<swisstopo:waypoint_is_controlpoint>1</swisstopo:waypoint_is_controlpoint>
					<swisstopo:waypoint_routepoint_id>226000355</swisstopo:waypoint_routepoint_id>
					<swisstopo:waypoint_meters_into_tour>3586.911415</swisstopo:waypoint_meters_into_tour>
					<swisstopo:waypoint_trackpoint_id>swisstopo-10</swisstopo:waypoint_trackpoint_id>
					<swisstopo:waypoint_original_name>Waypoint</swisstopo:waypoint_original_name>
				</extensions>
				<name>swisstopo-10</name>
			</trkpt>
			<trkpt lat="45.9871161138" lon="7.0460207045">
				<ele>3163.1</ele>
				<time>1970-01-01T01:00:00+01:00</time>
				<extensions>
					<swisstopo:routepoint_id>1831266359</swisstopo:routepoint_id>
				</extensions>
			</trkpt>
			<trkpt lat="45.9871161138" lon="7.0460207045">
				<ele>3163.1</ele>
				<extensions>
					<swisstopo:waypoint_id>610864255</swisstopo:waypoint_id>
					<swisstopo:waypoint_is_controlpoint>1</swisstopo:waypoint_is_controlpoint>
					<swisstopo:waypoint_routepoint_id>1831266359</swisstopo:waypoint_routepoint_id>
					<swisstopo:waypoint_meters_into_tour>3705.980614</swisstopo:waypoint_meters_into_tour>
					<swisstopo:waypoint_trackpoint_id>swisstopo-11</swisstopo:waypoint_trackpoint_id>
					<swisstopo:waypoint_original_name>Waypoint</swisstopo:waypoint_original_name>
				</extensions>
				<name>swisstopo-11</name>
			</trkpt>
			<trkpt lat="45.9878948211" lon="7.0451842303">
				<ele>3237.6</ele>
				<time>1970-01-01T01:00:00+01:00</time>
				<extensions>
					<swisstopo:routepoint_id>1702228514</swisstopo:routepoint_id>
				</extensions>
			</trkpt>
			<trkpt lat="45.9878948211" lon="7.0451842303">
				<ele>3237.6</ele>
				<extensions>
					<swisstopo:waypoint_id>1215303822</swisstopo:waypoint_id>
					<swisstopo:waypoint_is_controlpoint>1</swisstopo:waypoint_is_controlpoint>
					<swisstopo:waypoint_routepoint_id>1702228514</swisstopo:waypoint_routepoint_id>
					<swisstopo:waypoint_meters_into_tour>3814.126419</swisstopo:waypoint_meters_into_tour>
					<swisstopo:waypoint_trackpoint_id>swisstopo-12</swisstopo:waypoint_trackpoint_id>
					<swisstopo:waypoint_original_name>Waypoint</swisstopo:waypoint_original_name>
				</extensions>
				<name>swisstopo-12</name>
			</trkpt>
			<trkpt lat="45.9884951826" lon="7.0439806287">
				<ele>3251.0</ele>
				<time>1970-01-01T01:00:00+01:00</time>
				<extensions>
					<swisstopo:routepoint_id>2098348494</swisstopo:routepoint_id>
				</extensions>
			</trkpt>
			<trkpt lat="45.9884951826" lon="7.0439806287">
				<ele>3251.0</ele>
				<extensions>
					<swisstopo:waypoint_id>1076115743</swisstopo:waypoint_id>
					<swisstopo:waypoint_is_controlpoint>1</swisstopo:waypoint_is_controlpoint>
					<swisstopo:waypoint_routepoint_id>2098348494</swisstopo:waypoint_routepoint_id>
					<swisstopo:waypoint_meters_into_tour>3928.813766</swisstopo:waypoint_meters_into_tour>
					<swisstopo:waypoint_trackpoint_id>swisstopo-13</swisstopo:waypoint_trackpoint_id>
					<swisstopo:waypoint_original_name>Waypoint</swisstopo:waypoint_original_name>
				</extensions>
				<name>swisstopo-13</name>
			</trkpt>
			<trkpt lat="45.9903276656" lon="7.0393043395">
				<ele>3180.0</ele>
				<time>1970-01-01T01:00:00+01:00</time>
				<extensions>
					<swisstopo:routepoint_id>2090663695</swisstopo:routepoint_id>
				</extensions>
			</trkpt>
			<trkpt lat="45.9903276656" lon="7.0393043395">
				<ele>3180.0</ele>
				<extensions>
					<swisstopo:waypoint_id>1316747457</swisstopo:waypoint_id>
					<swisstopo:waypoint_is_controlpoint>1</swisstopo:waypoint_is_controlpoint>
					<swisstopo:waypoint_routepoint_id>2090663695</swisstopo:waypoint_routepoint_id>
					<swisstopo:waypoint_meters_into_tour>4344.509781</swisstopo:waypoint_meters_into_tour>
					<swisstopo:waypoint_trackpoint_id>swisstopo-14</swisstopo:waypoint_trackpoint_id>
					<swisstopo:waypoint_original_name>Waypoint</swisstopo:waypoint_original_name>
				</extensions>
				<name>swisstopo-14</name>
			</trkpt>
			<trkpt lat="45.9943058776" lon="7.0390437514">
				<ele>3143.7</ele>
				<time>1970-01-01T01:00:00+01:00</time>
				<extensions>
					<swisstopo:routepoint_id>452709082</swisstopo:routepoint_id>
				</extensions>
			</trkpt>
			<trkpt lat="45.9943058776" lon="7.0390437514">
				<ele>3143.7</ele>
				<extensions>
					<swisstopo:waypoint_id>1304686158</swisstopo:waypoint_id>
					<swisstopo:waypoint_is_controlpoint>1</swisstopo:waypoint_is_controlpoint>
					<swisstopo:waypoint_routepoint_id>452709082</swisstopo:waypoint_routepoint_id>
					<swisstopo:waypoint_meters_into_tour>4787.221573</swisstopo:waypoint_meters_into_tour>
					<swisstopo:waypoint_trackpoint_id>swisstopo-15</swisstopo:waypoint_trackpoint_id>
					<swisstopo:waypoint_original_name>Waypoint</swisstopo:waypoint_original_name>
				</extensions>
				<name>swisstopo-15</name>
			</trkpt>
			<trkpt lat="45.9955682026" lon="7.0407632835">
				<ele>3103.8</ele>
				<time>1970-01-01T01:00:00+01:00</time>
				<extensions>
					<swisstopo:routepoint_id>1647755112</swisstopo:routepoint_id>
				</extensions>
			</trkpt>
			<trkpt lat="45.9955682026" lon="7.0407632835">
				<ele>3103.8</ele>
				<extensions>
					<swisstopo:waypoint_id>645136839</swisstopo:waypoint_id>
					<swisstopo:waypoint_is_controlpoint>1</swisstopo:waypoint_is_controlpoint>
					<swisstopo:waypoint_routepoint_id>1647755112</swisstopo:waypoint_routepoint_id>
					<swisstopo:waypoint_meters_into_tour>4980.723297</swisstopo:waypoint_meters_into_tour>
					<swisstopo:waypoint_trackpoint_id>swisstopo-16</swisstopo:waypoint_trackpoint_id>
					<swisstopo:waypoint_original_name>Waypoint</swisstopo:waypoint_original_name>
				</extensions>
				<name>swisstopo-16</name>
			</trkpt>
			<trkpt lat="45.9971968969" lon="7.0434217634">
				<ele>3069.2</ele>
				<time>1970-01-01T01:00:00+01:00</time>
				<extensions>
					<swisstopo:routepoint_id>497488594</swisstopo:routepoint_id>
				</extensions>
			</trkpt>
			<trkpt lat="45.9971968969" lon="7.0434217634">
				<ele>3069.2</ele>
				<extensions>
					<swisstopo:waypoint_id>1665389659</swisstopo:waypoint_id>
					<swisstopo:waypoint_is_controlpoint>1</swisstopo:waypoint_is_controlpoint>
					<swisstopo:waypoint_routepoint_id>497488594</swisstopo:waypoint_routepoint_id>
					<swisstopo:waypoint_meters_into_tour>5254.964142</swisstopo:waypoint_meters_into_tour>
					<swisstopo:waypoint_trackpoint_id>swisstopo-17</swisstopo:waypoint_trackpoint_id>
					<swisstopo:waypoint_original_name>Waypoint</swisstopo:waypoint_original_name>
				</extensions>
				<name>swisstopo-17</name>
			</trkpt>
			<trkpt lat="45.9977312307" lon="7.0444906678">
				<ele>3063.7</ele>
				<time>1970-01-01T01:00:00+01:00</time>
				<extensions>
					<swisstopo:routepoint_id>1849484725</swisstopo:routepoint_id>
				</extensions>
			</trkpt>
			<trkpt lat="45.9977312307" lon="7.0444906678">
				<ele>3063.7</ele>
				<extensions>
					<swisstopo:waypoint_id>451987289</swisstopo:waypoint_id>
					<swisstopo:waypoint_is_controlpoint>1</swisstopo:waypoint_is_controlpoint>
					<swisstopo:waypoint_routepoint_id>1849484725</swisstopo:waypoint_routepoint_id>
					<swisstopo:waypoint_meters_into_tour>5356.880127</swisstopo:waypoint_meters_into_tour>
					<swisstopo:waypoint_trackpoint_id>swisstopo-18</swisstopo:waypoint_trackpoint_id>
					<swisstopo:waypoint_original_name>Waypoint</swisstopo:waypoint_original_name>
				</extensions>
				<name>swisstopo-18</name>
			</trkpt>
			<trkpt lat="45.9993347213" lon="7.0437996585">
				<ele>3141.1</ele>
				<time>1970-01-01T01:00:00+01:00</time>
				<extensions>
					<swisstopo:routepoint_id>1459609064</swisstopo:routepoint_id>
				</extensions>
			</trkpt>
			<trkpt lat="45.9993347213" lon="7.0437996585">
				<ele>3141.1</ele>
				<extensions>
					<swisstopo:waypoint_id>1161604894</swisstopo:waypoint_id>
					<swisstopo:waypoint_is_controlpoint>1</swisstopo:waypoint_is_controlpoint>
					<swisstopo:waypoint_routepoint_id>1459609064</swisstopo:waypoint_routepoint_id>
					<swisstopo:waypoint_meters_into_tour>5543.003159</swisstopo:waypoint_meters_into_tour>
					<swisstopo:waypoint_stage_before distance="5543.003159" duration="10421.000197" ascent="782.874797" descent="310.795695" />
					<swisstopo:waypoint_trackpoint_id>swisstopo-20</swisstopo:waypoint_trackpoint_id>
					<swisstopo:waypoint_original_name>Destination</swisstopo:waypoint_original_name>
				</extensions>
				<name>swisstopo-20</name>
			</trkpt>
		</trkseg>
	</trk>
</gpx>
