<?xml version="1.0"?>
<gpx version="1.1" creator="Generated by Swisstopo App. See https://www.swisstopo.ch/app for more information." xmlns="http://www.topografix.com/GPX/1/1" xmlns:xsi="http://www.w3.org/2001/XMLSchema-instance" xmlns:swisstopo="https://prod-static.swisstopo-app.ch/xmlschemas/SwisstopoExtensions" xsi:schemaLocation="http://www.topografix.com/GPX/1/1 http://www.topografix.com/GPX/1/1/gpx.xsd https://swisstopo-app.ch/xmlschemas/SwisstopoExtensions https://prod-static.swisstopo-app.ch/xmlschemas/SwisstopoExtensions.xsd">
	<metadata>
		<name>TrientAlbertPremier</name>
		<desc />
		<time>2026-07-25T17:10:25+02:00</time>
		<extensions>
			<swisstopo:tour_type>0</swisstopo:tour_type>
		</extensions>
	</metadata>
	<wpt lat="45.9993347213" lon="7.0437996585">
		<ele>3165.8</ele>
		<extensions>
			<swisstopo:waypoint_id>0</swisstopo:waypoint_id>
			<swisstopo:waypoint_is_controlpoint>1</swisstopo:waypoint_is_controlpoint>
			<swisstopo:waypoint_routepoint_id>44541938</swisstopo:waypoint_routepoint_id>
			<swisstopo:waypoint_meters_into_tour>0.000000</swisstopo:waypoint_meters_into_tour>
		</extensions>
		<name />
	</wpt>
	<wpt lat="46.0140476062" lon="6.9562889993">
		<ele>1858.8</ele>
		<extensions>
			<swisstopo:waypoint_id>855208455</swisstopo:waypoint_id>
			<swisstopo:waypoint_is_controlpoint>1</swisstopo:waypoint_is_controlpoint>
			<swisstopo:waypoint_routepoint_id>281269954</swisstopo:waypoint_routepoint_id>
			<swisstopo:waypoint_meters_into_tour>9447.267118</swisstopo:waypoint_meters_into_tour>
			<swisstopo:waypoint_stage_before distance="9447.267118" duration="16361.125681" ascent="503.971055" descent="1811.037828" />
		</extensions>
		<name>Destination</name>
	</wpt>
	<trk>
		<name>TrientAlbertPremier</name>
		<trkseg>
			<trkpt lat="45.9993347213" lon="7.0437996585">
				<ele>3165.8</ele>
				<time>1970-01-01T01:00:00+01:00</time>
				<extensions>
					<swisstopo:routepoint_id>44541938</swisstopo:routepoint_id>
				</extensions>
			</trkpt>
			<trkpt lat="45.9993347213" lon="7.0437996585">
				<ele>3165.8</ele>
				<extensions>
					<swisstopo:waypoint_id>0</swisstopo:waypoint_id>
					<swisstopo:waypoint_is_controlpoint>1</swisstopo:waypoint_is_controlpoint>
					<swisstopo:waypoint_routepoint_id>44541938</swisstopo:waypoint_routepoint_id>
					<swisstopo:waypoint_meters_into_tour>0.000000</swisstopo:waypoint_meters_into_tour>
					<swisstopo:waypoint_trackpoint_id>swisstopo-23</swisstopo:waypoint_trackpoint_id>
				</extensions>
				<name>swisstopo-23</name>
			</trkpt>
			<trkpt lat="45.9992615922" lon="7.0438264016">
				<ele>3164.4</ele>
				<time>1970-01-01T01:00:00+01:00</time>
				<extensions>
					<swisstopo:routepoint_id>22047959</swisstopo:routepoint_id>
				</extensions>
			</trkpt>
			<trkpt lat="45.9992046397" lon="7.0438181387">
				<ele>3161.8</ele>
				<time>1970-01-01T01:00:00+01:00</time>
				<extensions>
					<swisstopo:routepoint_id>1238473116</swisstopo:routepoint_id>
				</extensions>
			</trkpt>
			<trkpt lat="45.9991531017" lon="7.0438098240">
				<ele>3160.3</ele>
				<time>1970-01-01T01:00:00+01:00</time>
				<extensions>
					<swisstopo:routepoint_id>1075845332</swisstopo:routepoint_id>
				</extensions>
			</trkpt>
			<trkpt lat="45.9991151585" lon="7.0438123179">
				<ele>3159.2</ele>
				<time>1970-01-01T01:00:00+01:00</time>
				<extensions>
					<swisstopo:routepoint_id>938587107</swisstopo:routepoint_id>
				</extensions>
			</trkpt>
			<trkpt lat="45.9990596799" lon="7.0438498401">
				<ele>3157.6</ele>
				<time>1970-01-01T01:00:00+01:00</time>
				<extensions>
					<swisstopo:routepoint_id>177130635</swisstopo:routepoint_id>
				</extensions>
			</trkpt>
			<trkpt lat="45.9990109609" lon="7.0438807699">
				<ele>3155.7</ele>
				<time>1970-01-01T01:00:00+01:00</time>
				<extensions>
					<swisstopo:routepoint_id>425222321</swisstopo:routepoint_id>
				</extensions>
			</trkpt>
			<trkpt lat="45.9989735824" lon="7.0438927465">
				<ele>3153.1</ele>
				<time>1970-01-01T01:00:00+01:00</time>
				<extensions>
					<swisstopo:routepoint_id>814975069</swisstopo:routepoint_id>
				</extensions>
			</trkpt>
			<trkpt lat="45.9989475010" lon="7.0439150581">
				<ele>3152.2</ele>
				<time>1970-01-01T01:00:00+01:00</time>
				<extensions>
					<swisstopo:routepoint_id>542543071</swisstopo:routepoint_id>
				</extensions>
			</trkpt>
			<trkpt lat="45.9989094026" lon="7.0439193216">
				<ele>3152.0</ele>
				<time>1970-01-01T01:00:00+01:00</time>
				<extensions>
					<swisstopo:routepoint_id>1122769938</swisstopo:routepoint_id>
				</extensions>
			</trkpt>
			<trkpt lat="45.9988850201" lon="7.0439232018">
				<ele>3152.0</ele>
				<time>1970-01-01T01:00:00+01:00</time>
				<extensions>
					<swisstopo:routepoint_id>1346891452</swisstopo:routepoint_id>
				</extensions>
			</trkpt>
			<trkpt lat="45.9988454149" lon="7.0439493412">
				<ele>3151.2</ele>
				<time>1970-01-01T01:00:00+01:00</time>
				<extensions>
					<swisstopo:routepoint_id>1039370543</swisstopo:routepoint_id>
				</extensions>
			</trkpt>
			<trkpt lat="45.9987813984" lon="7.0439636141">
				<ele>3149.6</ele>
				<time>1970-01-01T01:00:00+01:00</time>
				<extensions>
					<swisstopo:routepoint_id>1665435111</swisstopo:routepoint_id>
				</extensions>
			</trkpt>
			<trkpt lat="45.9987584549" lon="7.0439773583">
				<ele>3149.0</ele>
				<time>1970-01-01T01:00:00+01:00</time>
				<extensions>
					<swisstopo:routepoint_id>1544558873</swisstopo:routepoint_id>
				</extensions>
			</trkpt>
			<trkpt lat="45.9987334029" lon="7.0440007471">
				<ele>3147.7</ele>
				<time>1970-01-01T01:00:00+01:00</time>
				<extensions>
					<swisstopo:routepoint_id>494502968</swisstopo:routepoint_id>
				</extensions>
			</trkpt>
			<trkpt lat="45.9987104529" lon="7.0440358269">
				<ele>3146.5</ele>
				<time>1970-01-01T01:00:00+01:00</time>
				<extensions>
					<swisstopo:routepoint_id>294302418</swisstopo:routepoint_id>
				</extensions>
			</trkpt>
			<trkpt lat="45.9986928531" lon="7.0440424982">
				<ele>3145.8</ele>
				<time>1970-01-01T01:00:00+01:00</time>
				<extensions>
					<swisstopo:routepoint_id>686926241</swisstopo:routepoint_id>
				</extensions>
			</trkpt>
			<trkpt lat="45.9986686320" lon="7.0441102954">
				<ele>3143.9</ele>
				<time>1970-01-01T01:00:00+01:00</time>
				<extensions>
					<swisstopo:routepoint_id>822491935</swisstopo:routepoint_id>
				</extensions>
			</trkpt>
			<trkpt lat="45.9986266138" lon="7.0441128050">
				<ele>3140.8</ele>
				<time>1970-01-01T01:00:00+01:00</time>
				<extensions>
					<swisstopo:routepoint_id>1870690612</swisstopo:routepoint_id>
				</extensions>
			</trkpt>
			<trkpt lat="45.9985790451" lon="7.0441457783">
				<ele>3138.5</ele>
				<time>1970-01-01T01:00:00+01:00</time>
				<extensions>
					<swisstopo:routepoint_id>1549748341</swisstopo:routepoint_id>
				</extensions>
			</trkpt>
			<trkpt lat="45.9985536695" lon="7.0441821414">
				<ele>3138.1</ele>
				<time>1970-01-01T01:00:00+01:00</time>
				<extensions>
					<swisstopo:routepoint_id>676729964</swisstopo:routepoint_id>
				</extensions>
			</trkpt>
			<trkpt lat="45.9985301486" lon="7.0442263510">
				<ele>3138.2</ele>
				<time>1970-01-01T01:00:00+01:00</time>
				<extensions>
					<swisstopo:routepoint_id>299191651</swisstopo:routepoint_id>
				</extensions>
			</trkpt>
			<trkpt lat="45.9985147263" lon="7.0442483791">
				<ele>3137.6</ele>
				<time>1970-01-01T01:00:00+01:00</time>
				<extensions>
					<swisstopo:routepoint_id>797658852</swisstopo:routepoint_id>
				</extensions>
			</trkpt>
			<trkpt lat="45.9984673772" lon="7.0442619374">
				<ele>3136.7</ele>
				<time>1970-01-01T01:00:00+01:00</time>
				<extensions>
					<swisstopo:routepoint_id>655295448</swisstopo:routepoint_id>
				</extensions>
			</trkpt>
			<trkpt lat="45.9984577792" lon="7.0442723710">
				<ele>3136.6</ele>
				<time>1970-01-01T01:00:00+01:00</time>
				<extensions>
					<swisstopo:routepoint_id>589614899</swisstopo:routepoint_id>
				</extensions>
			</trkpt>
			<trkpt lat="45.9984594978" lon="7.0443034526">
				<ele>3135.9</ele>
				<time>1970-01-01T01:00:00+01:00</time>
				<extensions>
					<swisstopo:routepoint_id>1662395360</swisstopo:routepoint_id>
				</extensions>
			</trkpt>
			<trkpt lat="45.9984598930" lon="7.0444163513">
				<ele>3133.2</ele>
				<time>1970-01-01T01:00:00+01:00</time>
				<extensions>
					<swisstopo:routepoint_id>341041368</swisstopo:routepoint_id>
				</extensions>
			</trkpt>
			<trkpt lat="45.9984487296" lon="7.0444394720">
				<ele>3132.6</ele>
				<time>1970-01-01T01:00:00+01:00</time>
				<extensions>
					<swisstopo:routepoint_id>49559895</swisstopo:routepoint_id>
				</extensions>
			</trkpt>
			<trkpt lat="45.9984361909" lon="7.0445271130">
				<ele>3131.0</ele>
				<time>1970-01-01T01:00:00+01:00</time>
				<extensions>
					<swisstopo:routepoint_id>1215352526</swisstopo:routepoint_id>
				</extensions>
			</trkpt>
			<trkpt lat="45.9984348640" lon="7.0446054582">
				<ele>3129.1</ele>
				<time>1970-01-01T01:00:00+01:00</time>
				<extensions>
					<swisstopo:routepoint_id>469038378</swisstopo:routepoint_id>
				</extensions>
			</trkpt>
			<trkpt lat="45.9984090973" lon="7.0445837530">
				<ele>3128.0</ele>
				<time>1970-01-01T01:00:00+01:00</time>
				<extensions>
					<swisstopo:routepoint_id>402515532</swisstopo:routepoint_id>
				</extensions>
			</trkpt>
			<trkpt lat="45.9979024117" lon="7.0445668787">
				<ele>3063.1</ele>
				<time>1970-01-01T01:00:00+01:00</time>
				<extensions>
					<swisstopo:routepoint_id>1640988648</swisstopo:routepoint_id>
				</extensions>
			</trkpt>
			<trkpt lat="45.9979024117" lon="7.0445668787">
				<ele>3063.1</ele>
				<extensions>
					<swisstopo:waypoint_id>1404802339</swisstopo:waypoint_id>
					<swisstopo:waypoint_is_controlpoint>1</swisstopo:waypoint_is_controlpoint>
					<swisstopo:waypoint_routepoint_id>1640988648</swisstopo:waypoint_routepoint_id>
					<swisstopo:waypoint_meters_into_tour>195.857450</swisstopo:waypoint_meters_into_tour>
					<swisstopo:waypoint_trackpoint_id>swisstopo-02</swisstopo:waypoint_trackpoint_id>
					<swisstopo:waypoint_original_name>Waypoint</swisstopo:waypoint_original_name>
				</extensions>
				<name>swisstopo-02</name>
			</trkpt>
			<trkpt lat="45.9973229164" lon="7.0409312258">
				<ele>3080.0</ele>
				<time>1970-01-01T01:00:00+01:00</time>
				<extensions>
					<swisstopo:routepoint_id>491086337</swisstopo:routepoint_id>
				</extensions>
			</trkpt>
			<trkpt lat="45.9973229164" lon="7.0409312258">
				<ele>3080.0</ele>
				<extensions>
					<swisstopo:waypoint_id>652133506</swisstopo:waypoint_id>
					<swisstopo:waypoint_is_controlpoint>1</swisstopo:waypoint_is_controlpoint>
					<swisstopo:waypoint_routepoint_id>491086337</swisstopo:waypoint_routepoint_id>
					<swisstopo:waypoint_meters_into_tour>484.808988</swisstopo:waypoint_meters_into_tour>
					<swisstopo:waypoint_trackpoint_id>swisstopo-03</swisstopo:waypoint_trackpoint_id>
					<swisstopo:waypoint_original_name>Waypoint</swisstopo:waypoint_original_name>
				</extensions>
				<name>swisstopo-03</name>
			</trkpt>
			<trkpt lat="45.9957526205" lon="7.0344505087">
				<ele>3080.5</ele>
				<time>1970-01-01T01:00:00+01:00</time>
				<extensions>
					<swisstopo:routepoint_id>449380829</swisstopo:routepoint_id>
				</extensions>
			</trkpt>
			<trkpt lat="45.9957526205" lon="7.0344505087">
				<ele>3080.5</ele>
				<extensions>
					<swisstopo:waypoint_id>1137629998</swisstopo:waypoint_id>
					<swisstopo:waypoint_is_controlpoint>1</swisstopo:waypoint_is_controlpoint>
					<swisstopo:waypoint_routepoint_id>449380829</swisstopo:waypoint_routepoint_id>
					<swisstopo:waypoint_meters_into_tour>1016.403775</swisstopo:waypoint_meters_into_tour>
					<swisstopo:waypoint_trackpoint_id>swisstopo-04</swisstopo:waypoint_trackpoint_id>
					<swisstopo:waypoint_original_name>Waypoint</swisstopo:waypoint_original_name>
				</extensions>
				<name>swisstopo-04</name>
			</trkpt>
			<trkpt lat="45.9924277159" lon="7.0242738066">
				<ele>3120.2</ele>
				<time>1970-01-01T01:00:00+01:00</time>
				<extensions>
					<swisstopo:routepoint_id>2054614158</swisstopo:routepoint_id>
				</extensions>
			</trkpt>
			<trkpt lat="45.9924277159" lon="7.0242738066">
				<ele>3120.2</ele>
				<extensions>
					<swisstopo:waypoint_id>1661655963</swisstopo:waypoint_id>
					<swisstopo:waypoint_is_controlpoint>1</swisstopo:waypoint_is_controlpoint>
					<swisstopo:waypoint_routepoint_id>2054614158</swisstopo:waypoint_routepoint_id>
					<swisstopo:waypoint_meters_into_tour>1887.246854</swisstopo:waypoint_meters_into_tour>
					<swisstopo:waypoint_trackpoint_id>swisstopo-05</swisstopo:waypoint_trackpoint_id>
					<swisstopo:waypoint_original_name>Waypoint</swisstopo:waypoint_original_name>
				</extensions>
				<name>swisstopo-05</name>
			</trkpt>
			<trkpt lat="45.9903261019" lon="7.0190813623">
				<ele>3211.9</ele>
				<time>1970-01-01T01:00:00+01:00</time>
				<extensions>
					<swisstopo:routepoint_id>275209122</swisstopo:routepoint_id>
				</extensions>
			</trkpt>
			<trkpt lat="45.9903261019" lon="7.0190813623">
				<ele>3211.9</ele>
				<extensions>
					<swisstopo:waypoint_id>1352947782</swisstopo:waypoint_id>
					<swisstopo:waypoint_is_controlpoint>1</swisstopo:waypoint_is_controlpoint>
					<swisstopo:waypoint_routepoint_id>275209122</swisstopo:waypoint_routepoint_id>
					<swisstopo:waypoint_meters_into_tour>2352.501004</swisstopo:waypoint_meters_into_tour>
					<swisstopo:waypoint_trackpoint_id>swisstopo-06</swisstopo:waypoint_trackpoint_id>
					<swisstopo:waypoint_original_name>Waypoint</swisstopo:waypoint_original_name>
				</extensions>
				<name>swisstopo-06</name>
			</trkpt>
			<trkpt lat="45.9880491096" lon="7.0116010012">
				<ele>3289.3</ele>
				<time>1970-01-01T01:00:00+01:00</time>
				<extensions>
					<swisstopo:routepoint_id>316340605</swisstopo:routepoint_id>
				</extensions>
			</trkpt>
			<trkpt lat="45.9880491096" lon="7.0116010012">
				<ele>3289.3</ele>
				<extensions>
					<swisstopo:waypoint_id>945224976</swisstopo:waypoint_id>
					<swisstopo:waypoint_is_controlpoint>1</swisstopo:waypoint_is_controlpoint>
					<swisstopo:waypoint_routepoint_id>316340605</swisstopo:waypoint_routepoint_id>
					<swisstopo:waypoint_meters_into_tour>2985.004788</swisstopo:waypoint_meters_into_tour>
					<swisstopo:waypoint_trackpoint_id>swisstopo-07</swisstopo:waypoint_trackpoint_id>
					<swisstopo:waypoint_original_name>Waypoint</swisstopo:waypoint_original_name>
				</extensions>
				<name>swisstopo-07</name>
			</trkpt>
			<trkpt lat="45.9877898108" lon="7.0072927668">
				<ele>3127.7</ele>
				<time>1970-01-01T01:00:00+01:00</time>
				<extensions>
					<swisstopo:routepoint_id>123309742</swisstopo:routepoint_id>
				</extensions>
			</trkpt>
			<trkpt lat="45.9877898108" lon="7.0072927668">
				<ele>3127.7</ele>
				<extensions>
					<swisstopo:waypoint_id>384672076</swisstopo:waypoint_id>
					<swisstopo:waypoint_is_controlpoint>1</swisstopo:waypoint_is_controlpoint>
					<swisstopo:waypoint_routepoint_id>123309742</swisstopo:waypoint_routepoint_id>
					<swisstopo:waypoint_meters_into_tour>3320.094327</swisstopo:waypoint_meters_into_tour>
					<swisstopo:waypoint_trackpoint_id>swisstopo-08</swisstopo:waypoint_trackpoint_id>
					<swisstopo:waypoint_original_name>Waypoint</swisstopo:waypoint_original_name>
				</extensions>
				<name>swisstopo-08</name>
			</trkpt>
			<trkpt lat="45.9900266105" lon="7.0043931492">
				<ele>3094.7</ele>
				<time>1970-01-01T01:00:00+01:00</time>
				<extensions>
					<swisstopo:routepoint_id>1164998620</swisstopo:routepoint_id>
				</extensions>
			</trkpt>
			<trkpt lat="45.9900266105" lon="7.0043931492">
				<ele>3094.7</ele>
				<extensions>
					<swisstopo:waypoint_id>1990844677</swisstopo:waypoint_id>
					<swisstopo:waypoint_is_controlpoint>1</swisstopo:waypoint_is_controlpoint>
					<swisstopo:waypoint_routepoint_id>1164998620</swisstopo:waypoint_routepoint_id>
					<swisstopo:waypoint_meters_into_tour>3655.232724</swisstopo:waypoint_meters_into_tour>
					<swisstopo:waypoint_trackpoint_id>swisstopo-09</swisstopo:waypoint_trackpoint_id>
					<swisstopo:waypoint_original_name>Waypoint</swisstopo:waypoint_original_name>
				</extensions>
				<name>swisstopo-09</name>
			</trkpt>
			<trkpt lat="45.9929975217" lon="7.0001275004">
				<ele>2951.9</ele>
				<time>1970-01-01T01:00:00+01:00</time>
				<extensions>
					<swisstopo:routepoint_id>440746120</swisstopo:routepoint_id>
				</extensions>
			</trkpt>
			<trkpt lat="45.9929975217" lon="7.0001275004">
				<ele>2951.9</ele>
				<extensions>
					<swisstopo:waypoint_id>735011064</swisstopo:waypoint_id>
					<swisstopo:waypoint_is_controlpoint>1</swisstopo:waypoint_is_controlpoint>
					<swisstopo:waypoint_routepoint_id>440746120</swisstopo:waypoint_routepoint_id>
					<swisstopo:waypoint_meters_into_tour>4122.487149</swisstopo:waypoint_meters_into_tour>
					<swisstopo:waypoint_trackpoint_id>swisstopo-10</swisstopo:waypoint_trackpoint_id>
					<swisstopo:waypoint_original_name>Waypoint</swisstopo:waypoint_original_name>
				</extensions>
				<name>swisstopo-10</name>
			</trkpt>
			<trkpt lat="45.9960062443" lon="6.9989030481">
				<ele>2951.3</ele>
				<time>1970-01-01T01:00:00+01:00</time>
				<extensions>
					<swisstopo:routepoint_id>65971932</swisstopo:routepoint_id>
				</extensions>
			</trkpt>
			<trkpt lat="45.9960062443" lon="6.9989030481">
				<ele>2951.3</ele>
				<extensions>
					<swisstopo:waypoint_id>2037975616</swisstopo:waypoint_id>
					<swisstopo:waypoint_is_controlpoint>1</swisstopo:waypoint_is_controlpoint>
					<swisstopo:waypoint_routepoint_id>65971932</swisstopo:waypoint_routepoint_id>
					<swisstopo:waypoint_meters_into_tour>4470.156522</swisstopo:waypoint_meters_into_tour>
					<swisstopo:waypoint_trackpoint_id>swisstopo-11</swisstopo:waypoint_trackpoint_id>
					<swisstopo:waypoint_original_name>Waypoint</swisstopo:waypoint_original_name>
				</extensions>
				<name>swisstopo-11</name>
			</trkpt>
			<trkpt lat="45.9962129166" lon="6.9923266910">
				<ele>2789.9</ele>
				<time>1970-01-01T01:00:00+01:00</time>
				<extensions>
					<swisstopo:routepoint_id>662925757</swisstopo:routepoint_id>
				</extensions>
			</trkpt>
			<trkpt lat="45.9962129166" lon="6.9923266910">
				<ele>2789.9</ele>
				<extensions>
					<swisstopo:waypoint_id>8970275</swisstopo:waypoint_id>
					<swisstopo:waypoint_is_controlpoint>1</swisstopo:waypoint_is_controlpoint>
					<swisstopo:waypoint_routepoint_id>662925757</swisstopo:waypoint_routepoint_id>
					<swisstopo:waypoint_meters_into_tour>4980.203580</swisstopo:waypoint_meters_into_tour>
					<swisstopo:waypoint_trackpoint_id>swisstopo-12</swisstopo:waypoint_trackpoint_id>
					<swisstopo:waypoint_original_name>Waypoint</swisstopo:waypoint_original_name>
				</extensions>
				<name>swisstopo-12</name>
			</trkpt>
			<trkpt lat="45.9966382985" lon="6.9872524054">
				<ele>2707.3</ele>
				<time>1970-01-01T01:00:00+01:00</time>
				<extensions>
					<swisstopo:routepoint_id>2134931259</swisstopo:routepoint_id>
				</extensions>
			</trkpt>
			<trkpt lat="45.9966382985" lon="6.9872524054">
				<ele>2707.3</ele>
				<extensions>
					<swisstopo:waypoint_id>1934440285</swisstopo:waypoint_id>
					<swisstopo:waypoint_is_controlpoint>1</swisstopo:waypoint_is_controlpoint>
					<swisstopo:waypoint_routepoint_id>2134931259</swisstopo:waypoint_routepoint_id>
					<swisstopo:waypoint_meters_into_tour>5376.185544</swisstopo:waypoint_meters_into_tour>
					<swisstopo:waypoint_trackpoint_id>swisstopo-13</swisstopo:waypoint_trackpoint_id>
					<swisstopo:waypoint_original_name>Waypoint</swisstopo:waypoint_original_name>
				</extensions>
				<name>swisstopo-13</name>
			</trkpt>
			<trkpt lat="45.9998463632" lon="6.9801449903">
				<ele>2480.4</ele>
				<time>1970-01-01T01:00:00+01:00</time>
				<extensions>
					<swisstopo:routepoint_id>196129457</swisstopo:routepoint_id>
				</extensions>
			</trkpt>
			<trkpt lat="45.9998463632" lon="6.9801449903">
				<ele>2480.4</ele>
				<extensions>
					<swisstopo:waypoint_id>385744963</swisstopo:waypoint_id>
					<swisstopo:waypoint_is_controlpoint>1</swisstopo:waypoint_is_controlpoint>
					<swisstopo:waypoint_routepoint_id>196129457</swisstopo:waypoint_routepoint_id>
					<swisstopo:waypoint_meters_into_tour>6032.240842</swisstopo:waypoint_meters_into_tour>
					<swisstopo:waypoint_trackpoint_id>swisstopo-14</swisstopo:waypoint_trackpoint_id>
					<swisstopo:waypoint_original_name>Waypoint</swisstopo:waypoint_original_name>
				</extensions>
				<name>swisstopo-14</name>
			</trkpt>
			<trkpt lat="46.0016965073" lon="6.9798821764">
				<ele>2494.7</ele>
				<time>1970-01-01T01:00:00+01:00</time>
				<extensions>
					<swisstopo:routepoint_id>801462620</swisstopo:routepoint_id>
				</extensions>
			</trkpt>
			<trkpt lat="46.0016965073" lon="6.9798821764">
				<ele>2494.7</ele>
				<extensions>
					<swisstopo:waypoint_id>1837541169</swisstopo:waypoint_id>
					<swisstopo:waypoint_is_controlpoint>1</swisstopo:waypoint_is_controlpoint>
					<swisstopo:waypoint_routepoint_id>801462620</swisstopo:waypoint_routepoint_id>
					<swisstopo:waypoint_meters_into_tour>6238.923383</swisstopo:waypoint_meters_into_tour>
					<swisstopo:waypoint_trackpoint_id>swisstopo-15</swisstopo:waypoint_trackpoint_id>
					<swisstopo:waypoint_original_name>Waypoint</swisstopo:waypoint_original_name>
				</extensions>
				<name>swisstopo-15</name>
			</trkpt>
			<trkpt lat="46.0042985647" lon="6.9750522812">
				<ele>2447.1</ele>
				<time>1970-01-01T01:00:00+01:00</time>
				<extensions>
					<swisstopo:routepoint_id>547516121</swisstopo:routepoint_id>
				</extensions>
			</trkpt>
			<trkpt lat="46.0042985647" lon="6.9750522812">
				<ele>2447.1</ele>
				<extensions>
					<swisstopo:waypoint_id>544249531</swisstopo:waypoint_id>
					<swisstopo:waypoint_is_controlpoint>1</swisstopo:waypoint_is_controlpoint>
					<swisstopo:waypoint_routepoint_id>547516121</swisstopo:waypoint_routepoint_id>
					<swisstopo:waypoint_meters_into_tour>6711.868360</swisstopo:waypoint_meters_into_tour>
					<swisstopo:waypoint_trackpoint_id>swisstopo-16</swisstopo:waypoint_trackpoint_id>
					<swisstopo:waypoint_original_name>Waypoint</swisstopo:waypoint_original_name>
				</extensions>
				<name>swisstopo-16</name>
			</trkpt>
			<trkpt lat="46.0052521723" lon="6.9695508920">
				<ele>2326.6</ele>
				<time>1970-01-01T01:00:00+01:00</time>
				<extensions>
					<swisstopo:routepoint_id>1894458041</swisstopo:routepoint_id>
				</extensions>
			</trkpt>
			<trkpt lat="46.0052521723" lon="6.9695508920">
				<ele>2326.6</ele>
				<extensions>
					<swisstopo:waypoint_id>713740651</swisstopo:waypoint_id>
					<swisstopo:waypoint_is_controlpoint>1</swisstopo:waypoint_is_controlpoint>
					<swisstopo:waypoint_routepoint_id>1894458041</swisstopo:waypoint_routepoint_id>
					<swisstopo:waypoint_meters_into_tour>7151.030164</swisstopo:waypoint_meters_into_tour>
					<swisstopo:waypoint_trackpoint_id>swisstopo-17</swisstopo:waypoint_trackpoint_id>
					<swisstopo:waypoint_original_name>Waypoint</swisstopo:waypoint_original_name>
				</extensions>
				<name>swisstopo-17</name>
			</trkpt>
			<trkpt lat="46.0106846407" lon="6.9715454170">
				<ele>2271.9</ele>
				<time>1970-01-01T01:00:00+01:00</time>
				<extensions>
					<swisstopo:routepoint_id>1999361882</swisstopo:routepoint_id>
				</extensions>
			</trkpt>
			<trkpt lat="46.0106846407" lon="6.9715454170">
				<ele>2271.9</ele>
				<extensions>
					<swisstopo:waypoint_id>1129208767</swisstopo:waypoint_id>
					<swisstopo:waypoint_is_controlpoint>1</swisstopo:waypoint_is_controlpoint>
					<swisstopo:waypoint_routepoint_id>1999361882</swisstopo:waypoint_routepoint_id>
					<swisstopo:waypoint_meters_into_tour>7774.396741</swisstopo:waypoint_meters_into_tour>
					<swisstopo:waypoint_trackpoint_id>swisstopo-18</swisstopo:waypoint_trackpoint_id>
					<swisstopo:waypoint_original_name>Waypoint</swisstopo:waypoint_original_name>
				</extensions>
				<name>swisstopo-18</name>
			</trkpt>
			<trkpt lat="46.0144053381" lon="6.9679924446">
				<ele>2140.0</ele>
				<time>1970-01-01T01:00:00+01:00</time>
				<extensions>
					<swisstopo:routepoint_id>42085886</swisstopo:routepoint_id>
				</extensions>
			</trkpt>
			<trkpt lat="46.0144053381" lon="6.9679924446">
				<ele>2140.0</ele>
				<extensions>
					<swisstopo:waypoint_id>956596829</swisstopo:waypoint_id>
					<swisstopo:waypoint_is_controlpoint>1</swisstopo:waypoint_is_controlpoint>
					<swisstopo:waypoint_routepoint_id>42085886</swisstopo:waypoint_routepoint_id>
					<swisstopo:waypoint_meters_into_tour>8271.204450</swisstopo:waypoint_meters_into_tour>
					<swisstopo:waypoint_trackpoint_id>swisstopo-19</swisstopo:waypoint_trackpoint_id>
					<swisstopo:waypoint_original_name>Waypoint</swisstopo:waypoint_original_name>
				</extensions>
				<name>swisstopo-19</name>
			</trkpt>
			<trkpt lat="46.0157761071" lon="6.9650448773">
				<ele>2076.3</ele>
				<time>1970-01-01T01:00:00+01:00</time>
				<extensions>
					<swisstopo:routepoint_id>1978565643</swisstopo:routepoint_id>
				</extensions>
			</trkpt>
			<trkpt lat="46.0157761071" lon="6.9650448773">
				<ele>2076.3</ele>
				<extensions>
					<swisstopo:waypoint_id>1892138308</swisstopo:waypoint_id>
					<swisstopo:waypoint_is_controlpoint>1</swisstopo:waypoint_is_controlpoint>
					<swisstopo:waypoint_routepoint_id>1978565643</swisstopo:waypoint_routepoint_id>
					<swisstopo:waypoint_meters_into_tour>8545.686170</swisstopo:waypoint_meters_into_tour>
					<swisstopo:waypoint_trackpoint_id>swisstopo-20</swisstopo:waypoint_trackpoint_id>
					<swisstopo:waypoint_original_name>Waypoint</swisstopo:waypoint_original_name>
				</extensions>
				<name>swisstopo-20</name>
			</trkpt>
			<trkpt lat="46.0151766548" lon="6.9615510605">
				<ele>1964.5</ele>
				<time>1970-01-01T01:00:00+01:00</time>
				<extensions>
					<swisstopo:routepoint_id>1613926958</swisstopo:routepoint_id>
				</extensions>
			</trkpt>
			<trkpt lat="46.0151766548" lon="6.9615510605">
				<ele>1964.5</ele>
				<extensions>
					<swisstopo:waypoint_id>497653937</swisstopo:waypoint_id>
					<swisstopo:waypoint_is_controlpoint>1</swisstopo:waypoint_is_controlpoint>
					<swisstopo:waypoint_routepoint_id>1613926958</swisstopo:waypoint_routepoint_id>
					<swisstopo:waypoint_meters_into_tour>8824.372388</swisstopo:waypoint_meters_into_tour>
					<swisstopo:waypoint_trackpoint_id>swisstopo-21</swisstopo:waypoint_trackpoint_id>
					<swisstopo:waypoint_original_name>Waypoint</swisstopo:waypoint_original_name>
				</extensions>
				<name>swisstopo-21</name>
			</trkpt>
			<trkpt lat="46.0125109440" lon="6.9587210135">
				<ele>1873.8</ele>
				<time>1970-01-01T01:00:00+01:00</time>
				<extensions>
					<swisstopo:routepoint_id>1999620773</swisstopo:routepoint_id>
				</extensions>
			</trkpt>
			<trkpt lat="46.0125109440" lon="6.9587210135">
				<ele>1873.8</ele>
				<extensions>
					<swisstopo:waypoint_id>237946036</swisstopo:waypoint_id>
					<swisstopo:waypoint_is_controlpoint>1</swisstopo:waypoint_is_controlpoint>
					<swisstopo:waypoint_routepoint_id>1999620773</swisstopo:waypoint_routepoint_id>
					<swisstopo:waypoint_meters_into_tour>9192.972455</swisstopo:waypoint_meters_into_tour>
					<swisstopo:waypoint_trackpoint_id>swisstopo-22</swisstopo:waypoint_trackpoint_id>
					<swisstopo:waypoint_original_name>Waypoint</swisstopo:waypoint_original_name>
				</extensions>
				<name>swisstopo-22</name>
			</trkpt>
			<trkpt lat="46.0140476062" lon="6.9562889993">
				<ele>1858.8</ele>
				<time>1970-01-01T01:00:00+01:00</time>
				<extensions>
					<swisstopo:routepoint_id>281269954</swisstopo:routepoint_id>
				</extensions>
			</trkpt>
			<trkpt lat="46.0140476062" lon="6.9562889993">
				<ele>1858.8</ele>
				<extensions>
					<swisstopo:waypoint_id>855208455</swisstopo:waypoint_id>
					<swisstopo:waypoint_is_controlpoint>1</swisstopo:waypoint_is_controlpoint>
					<swisstopo:waypoint_routepoint_id>281269954</swisstopo:waypoint_routepoint_id>
					<swisstopo:waypoint_meters_into_tour>9447.267118</swisstopo:waypoint_meters_into_tour>
					<swisstopo:waypoint_stage_before distance="9447.267118" duration="16361.125681" ascent="503.971055" descent="1811.037828" />
					<swisstopo:waypoint_trackpoint_id>swisstopo-24</swisstopo:waypoint_trackpoint_id>
					<swisstopo:waypoint_original_name>Destination</swisstopo:waypoint_original_name>
				</extensions>
				<name>swisstopo-24</name>
			</trkpt>
		</trkseg>
	</trk>
</gpx>
